QIANFAN-129             
1 69075U 26104C   26199.82914578 -.01826377  00000+0 -28817+1 0  9992
2 69075  88.9898 338.2094 0005344  17.5884 342.5453 13.54179379  9449
QIANFAN-130             
1 69076U 26104D   26199.83309285 -.01806655  00000+0 -31713+1 0  9993
2 69076  88.9901 338.2657 0006589 156.3185 203.8268 13.47309992  9416
QIANFAN-131             
1 69077U 26104E   26199.79628008 -.01884943  00000+0 -29699+1 0  9992
2 69077  88.9887 338.2387 0005153  51.4634 308.6980 13.54408565  9420
QIANFAN-132             
1 69078U 26104F   26199.76897440  .00000013  00000+0  22066-5 0  9999
2 69078  88.9899 338.2926 0001813 102.5198 257.6156 13.51021440  9399
QIANFAN-133             
1 69079U 26104G   26199.82480913 -.01476384  00000+0 -23843+1 0  9990
2 69079  88.9898 338.2465 0006010 345.2441  14.8534 13.52484307  9410
QIANFAN-134             
1 69080U 26104H   26199.82018264 -.01887051  00000+0 -29797+1 0  9999
2 69080  88.9900 338.2630 0005984   3.7139 356.4057 13.54275505  9414
QIANFAN-135             
1 69081U 26104J   26199.86126906 -.01854560  00000+0 -30750+1 0  9997
2 69081  88.9896 338.2502 0008422  18.3494 341.7960 13.51078767  9422
QIANFAN-136             
1 69082U 26104K   26199.72635610  .00000053  00000+0  56198-4 0  9995
2 69082  88.9900 338.2669 0010812 359.2229   0.8908 13.57858034  9404
QIANFAN-137             
1 69083U 26104L   26199.76923988 -.01906387  00000+0 -29920+1 0  9995
2 69083  88.9906 338.1450 0009461  35.1357 325.0419 13.54695503  9471
QIANFAN-138             
1 69084U 26104M   26199.07335853 -.02089634  00000+0 -35630+1 0  9991
2 69084  88.9882 338.3358 0007611 346.7774  13.3175 13.49102339  9316
QIANFAN-139             
1 69085U 26104N   26199.81144400 -.01892478  00000+0 -30625+1 0  9996
2 69085  88.9895 338.2433 0008897  33.1547 327.0161 13.52718307  9420
QIANFAN-140             
1 69086U 26104P   26199.14408992 -.02106488  00000+0 -34786+1 0  9994
2 69086  88.9904 338.3119 0009486  26.7669 333.3970 13.51179619  9336
QIANFAN-141             
1 69087U 26104Q   26199.84493388 -.01934837  00000+0 -30368+1 0  9993
2 69087  88.9897 338.2129 0003851  62.3354 297.8189 13.54776569  9443
QIANFAN-142             
1 69088U 26104R   26199.31463199 -.02087979  00000+0 -33776+1 0  9996
2 69088  88.9899 338.2634 0013230  16.9346 343.2245 13.52441994  9375
QIANFAN-143             
1 69089U 26104S   26199.77789802 -.01665412  00000+0 -26589+1 0  9996
2 69089  88.9902 338.2205 0006071 337.7683  22.3205 13.53042853  9438
QIANFAN-144             
1 69090U 26104T   26199.01601138  .00000027  00000+0  22603-4 0  9999
2 69090  88.9892 338.3129 0007839   1.0993 359.0174 13.50964190  9329
