{"fetched_at":"2026-07-19T07:04:52.450Z","source":"https://celestrak.org/NORAD/elements/gp.php?GROUP=qianfan&FORMAT=JSON","constellation":"qianfan","records":[{"OBJECT_NAME":"QIANFAN-129","OBJECT_ID":"2026-104C","EPOCH":"2026-07-18T19:53:58.195392","CLASSIFICATION_TYPE":"U","MEAN_MOTION":13.54179379,"ECCENTRICITY":0.0005344,"INCLINATION":88.9898,"RA_OF_ASC_NODE":338.2094,"ARG_OF_PERICENTER":17.5884,"MEAN_ANOMALY":342.5453,"EPHEMERIS_TYPE":0,"NORAD_CAT_ID":69075,"ELEMENT_SET_NO":999,"REV_AT_EPOCH":944,"BSTAR":-2.8817,"MEAN_MOTION_DOT":-0.01826377,"MEAN_MOTION_DDOT":0},{"OBJECT_NAME":"QIANFAN-130","OBJECT_ID":"2026-104D","EPOCH":"2026-07-18T19:59:39.222240","CLASSIFICATION_TYPE":"U","MEAN_MOTION":13.47309992,"ECCENTRICITY":0.0006589,"INCLINATION":88.9901,"RA_OF_ASC_NODE":338.2657,"ARG_OF_PERICENTER":156.3185,"MEAN_ANOMALY":203.8268,"EPHEMERIS_TYPE":0,"NORAD_CAT_ID":69076,"ELEMENT_SET_NO":999,"REV_AT_EPOCH":941,"BSTAR":-3.1713,"MEAN_MOTION_DOT":-0.01806655,"MEAN_MOTION_DDOT":0},{"OBJECT_NAME":"QIANFAN-131","OBJECT_ID":"2026-104E","EPOCH":"2026-07-18T19:06:38.598912","CLASSIFICATION_TYPE":"U","MEAN_MOTION":13.54408565,"ECCENTRICITY":0.0005153,"INCLINATION":88.9887,"RA_OF_ASC_NODE":338.2387,"ARG_OF_PERICENTER":51.4634,"MEAN_ANOMALY":308.698,"EPHEMERIS_TYPE":0,"NORAD_CAT_ID":69077,"ELEMENT_SET_NO":999,"REV_AT_EPOCH":942,"BSTAR":-2.9699,"MEAN_MOTION_DOT":-0.01884943,"MEAN_MOTION_DDOT":0},{"OBJECT_NAME":"QIANFAN-132","OBJECT_ID":"2026-104F","EPOCH":"2026-07-18T18:27:19.388160","CLASSIFICATION_TYPE":"U","MEAN_MOTION":13.5102144,"ECCENTRICITY":0.0001813,"INCLINATION":88.9899,"RA_OF_ASC_NODE":338.2926,"ARG_OF_PERICENTER":102.5198,"MEAN_ANOMALY":257.6156,"EPHEMERIS_TYPE":0,"NORAD_CAT_ID":69078,"ELEMENT_SET_NO":999,"REV_AT_EPOCH":939,"BSTAR":0.0000022066,"MEAN_MOTION_DOT":1.3e-7,"MEAN_MOTION_DDOT":0},{"OBJECT_NAME":"QIANFAN-133","OBJECT_ID":"2026-104G","EPOCH":"2026-07-18T19:47:43.508832","CLASSIFICATION_TYPE":"U","MEAN_MOTION":13.52484307,"ECCENTRICITY":0.000601,"INCLINATION":88.9898,"RA_OF_ASC_NODE":338.2465,"ARG_OF_PERICENTER":345.2441,"MEAN_ANOMALY":14.8534,"EPHEMERIS_TYPE":0,"NORAD_CAT_ID":69079,"ELEMENT_SET_NO":999,"REV_AT_EPOCH":941,"BSTAR":-2.3843,"MEAN_MOTION_DOT":-0.01476384,"MEAN_MOTION_DDOT":0},{"OBJECT_NAME":"QIANFAN-134","OBJECT_ID":"2026-104H","EPOCH":"2026-07-18T19:41:03.780096","CLASSIFICATION_TYPE":"U","MEAN_MOTION":13.54275505,"ECCENTRICITY":0.0005984,"INCLINATION":88.99,"RA_OF_ASC_NODE":338.263,"ARG_OF_PERICENTER":3.7139,"MEAN_ANOMALY":356.4057,"EPHEMERIS_TYPE":0,"NORAD_CAT_ID":69080,"ELEMENT_SET_NO":999,"REV_AT_EPOCH":941,"BSTAR":-2.9797,"MEAN_MOTION_DOT":-0.01887051,"MEAN_MOTION_DDOT":0},{"OBJECT_NAME":"QIANFAN-135","OBJECT_ID":"2026-104J","EPOCH":"2026-07-18T20:40:13.646784","CLASSIFICATION_TYPE":"U","MEAN_MOTION":13.51078767,"ECCENTRICITY":0.0008422,"INCLINATION":88.9896,"RA_OF_ASC_NODE":338.2502,"ARG_OF_PERICENTER":18.3494,"MEAN_ANOMALY":341.796,"EPHEMERIS_TYPE":0,"NORAD_CAT_ID":69081,"ELEMENT_SET_NO":999,"REV_AT_EPOCH":942,"BSTAR":-3.075,"MEAN_MOTION_DOT":-0.0185456,"MEAN_MOTION_DDOT":0},{"OBJECT_NAME":"QIANFAN-136","OBJECT_ID":"2026-104K","EPOCH":"2026-07-18T17:25:57.167040","CLASSIFICATION_TYPE":"U","MEAN_MOTION":13.57858034,"ECCENTRICITY":0.0010812,"INCLINATION":88.99,"RA_OF_ASC_NODE":338.2669,"ARG_OF_PERICENTER":359.2229,"MEAN_ANOMALY":0.8908,"EPHEMERIS_TYPE":0,"NORAD_CAT_ID":69082,"ELEMENT_SET_NO":999,"REV_AT_EPOCH":940,"BSTAR":0.000056198,"MEAN_MOTION_DOT":5.3e-7,"MEAN_MOTION_DDOT":0},{"OBJECT_NAME":"QIANFAN-137","OBJECT_ID":"2026-104L","EPOCH":"2026-07-18T18:27:42.325632","CLASSIFICATION_TYPE":"U","MEAN_MOTION":13.54695503,"ECCENTRICITY":0.0009461,"INCLINATION":88.9906,"RA_OF_ASC_NODE":338.145,"ARG_OF_PERICENTER":35.1357,"MEAN_ANOMALY":325.0419,"EPHEMERIS_TYPE":0,"NORAD_CAT_ID":69083,"ELEMENT_SET_NO":999,"REV_AT_EPOCH":947,"BSTAR":-2.992,"MEAN_MOTION_DOT":-0.01906387,"MEAN_MOTION_DDOT":0},{"OBJECT_NAME":"QIANFAN-138","OBJECT_ID":"2026-104M","EPOCH":"2026-07-18T01:45:38.176992","CLASSIFICATION_TYPE":"U","MEAN_MOTION":13.49102339,"ECCENTRICITY":0.0007611,"INCLINATION":88.9882,"RA_OF_ASC_NODE":338.3358,"ARG_OF_PERICENTER":346.7774,"MEAN_ANOMALY":13.3175,"EPHEMERIS_TYPE":0,"NORAD_CAT_ID":69084,"ELEMENT_SET_NO":999,"REV_AT_EPOCH":931,"BSTAR":-3.563,"MEAN_MOTION_DOT":-0.02089634,"MEAN_MOTION_DDOT":0},{"OBJECT_NAME":"QIANFAN-139","OBJECT_ID":"2026-104N","EPOCH":"2026-07-18T19:28:28.761600","CLASSIFICATION_TYPE":"U","MEAN_MOTION":13.52718307,"ECCENTRICITY":0.0008897,"INCLINATION":88.9895,"RA_OF_ASC_NODE":338.2433,"ARG_OF_PERICENTER":33.1547,"MEAN_ANOMALY":327.0161,"EPHEMERIS_TYPE":0,"NORAD_CAT_ID":69085,"ELEMENT_SET_NO":999,"REV_AT_EPOCH":942,"BSTAR":-3.0625,"MEAN_MOTION_DOT":-0.01892478,"MEAN_MOTION_DDOT":0},{"OBJECT_NAME":"QIANFAN-140","OBJECT_ID":"2026-104P","EPOCH":"2026-07-18T03:27:29.369088","CLASSIFICATION_TYPE":"U","MEAN_MOTION":13.51179619,"ECCENTRICITY":0.0009486,"INCLINATION":88.9904,"RA_OF_ASC_NODE":338.3119,"ARG_OF_PERICENTER":26.7669,"MEAN_ANOMALY":333.397,"EPHEMERIS_TYPE":0,"NORAD_CAT_ID":69086,"ELEMENT_SET_NO":999,"REV_AT_EPOCH":933,"BSTAR":-3.4786,"MEAN_MOTION_DOT":-0.02106488,"MEAN_MOTION_DDOT":0},{"OBJECT_NAME":"QIANFAN-141","OBJECT_ID":"2026-104Q","EPOCH":"2026-07-18T20:16:42.287232","CLASSIFICATION_TYPE":"U","MEAN_MOTION":13.54776569,"ECCENTRICITY":0.0003851,"INCLINATION":88.9897,"RA_OF_ASC_NODE":338.2129,"ARG_OF_PERICENTER":62.3354,"MEAN_ANOMALY":297.8189,"EPHEMERIS_TYPE":0,"NORAD_CAT_ID":69087,"ELEMENT_SET_NO":999,"REV_AT_EPOCH":944,"BSTAR":-3.0368,"MEAN_MOTION_DOT":-0.01934837,"MEAN_MOTION_DDOT":0},{"OBJECT_NAME":"QIANFAN-142","OBJECT_ID":"2026-104R","EPOCH":"2026-07-18T07:33:04.203936","CLASSIFICATION_TYPE":"U","MEAN_MOTION":13.52441994,"ECCENTRICITY":0.001323,"INCLINATION":88.9899,"RA_OF_ASC_NODE":338.2634,"ARG_OF_PERICENTER":16.9346,"MEAN_ANOMALY":343.2245,"EPHEMERIS_TYPE":0,"NORAD_CAT_ID":69088,"ELEMENT_SET_NO":999,"REV_AT_EPOCH":937,"BSTAR":-3.3776,"MEAN_MOTION_DOT":-0.02087979,"MEAN_MOTION_DDOT":0},{"OBJECT_NAME":"QIANFAN-143","OBJECT_ID":"2026-104S","EPOCH":"2026-07-18T18:40:10.388928","CLASSIFICATION_TYPE":"U","MEAN_MOTION":13.53042853,"ECCENTRICITY":0.0006071,"INCLINATION":88.9902,"RA_OF_ASC_NODE":338.2205,"ARG_OF_PERICENTER":337.7683,"MEAN_ANOMALY":22.3205,"EPHEMERIS_TYPE":0,"NORAD_CAT_ID":69089,"ELEMENT_SET_NO":999,"REV_AT_EPOCH":943,"BSTAR":-2.6589,"MEAN_MOTION_DOT":-0.01665412,"MEAN_MOTION_DDOT":0},{"OBJECT_NAME":"QIANFAN-144","OBJECT_ID":"2026-104T","EPOCH":"2026-07-18T00:23:03.383232","CLASSIFICATION_TYPE":"U","MEAN_MOTION":13.5096419,"ECCENTRICITY":0.00078394,"INCLINATION":88.9892,"RA_OF_ASC_NODE":338.3129,"ARG_OF_PERICENTER":1.0993,"MEAN_ANOMALY":359.0174,"EPHEMERIS_TYPE":0,"NORAD_CAT_ID":69090,"ELEMENT_SET_NO":999,"REV_AT_EPOCH":932,"BSTAR":0.000022602854,"MEAN_MOTION_DOT":2.7e-7,"MEAN_MOTION_DDOT":0}]}
